[{"OBJECT_NAME":"TIANMU-1 09","OBJECT_ID":"2023-101C","EPOCH":"2026-03-09T22:17:34.703232","MEAN_MOTION":15.29080822,"ECCENTRICITY":0.00049013,"INCLINATION":97.267,"RA_OF_ASC_NODE":121.1263,"ARG_OF_PERICENTER":139.4293,"MEAN_ANOMALY":220.7314,"EPHEMERIS_TYPE":0,"CLASSIFICATION_TYPE":"U","NORAD_CAT_ID":57401,"ELEMENT_SET_NO":999,"REV_AT_EPOCH":14647,"BSTAR":0.00030540035,"MEAN_MOTION_DOT":8.553e-5,"MEAN_MOTION_DDOT":0},{"OBJECT_NAME":"STARLINK-33947","OBJECT_ID":"2025-091N","EPOCH":"2026-03-09T22:10:00.570144","MEAN_MOTION":15.276434,"ECCENTRICITY":0.0001886,"INCLINATION":43.0021,"RA_OF_ASC_NODE":51.5792,"ARG_OF_PERICENTER":287.9526,"MEAN_ANOMALY":72.112,"EPHEMERIS_TYPE":0,"CLASSIFICATION_TYPE":"U","NORAD_CAT_ID":63787,"ELEMENT_SET_NO":999,"REV_AT_EPOCH":4893,"BSTAR":0.0013772645,"MEAN_MOTION_DOT":0.00037906,"MEAN_MOTION_DDOT":0}]
